OBJECT_NAME,OBJECT_ID,EPOCH,MEAN_MOTION,ECCENTRICITY,INCLINATION,RA_OF_ASC_NODE,ARG_OF_PERICENTER,MEAN_ANOMALY,EPHEMERIS_TYPE,CLASSIFICATION_TYPE,NORAD_CAT_ID,ELEMENT_SET_NO,REV_AT_EPOCH,BSTAR,MEAN_MOTION_DOT,MEAN_MOTION_DDOT
SXM-7,2020-096A,2026-07-16T02:39:05.326848,1.00270266,.0003528,0.0264,97.1091,25.9654,125.4849,0,U,47240,999,773,0,-.216E-5,0
CMS-01,2020-099A,2026-07-16T03:46:38.667936,1.00270779,.0003448,0.0774,90.7914,175.8257,167.0243,0,U,47256,999,2048,0,-.175E-5,0
TURKSAT 5A,2021-001A,2026-07-14T22:06:08.283744,1.00271052,.0000214,0.0186,72.0805,188.2412,34.9010,0,U,47306,999,2024,0,.145E-5,0
TIANTONG-1 3,2021-003A,2026-07-16T03:26:40.511616,1.00270033,.0003,1.7351,341.1091,142.9984,303.0661,0,U,47321,999,2025,0,-.163E-5,0
TJS-6,2021-010A,2026-07-16T03:54:15.367104,1.00272845,.0003049,0.1781,261.6332,241.6692,27.7265,0,U,47613,999,2009,0,.32E-6,0
SBIRS GEO-5 (USA 315),2021-042A,2026-07-15T22:22:10.079040,1.00270730,.0001434,5.0678,329.3430,153.9077,239.8646,0,U,48618,999,1906,0,-.274E-5,0
FENGYUN 4B,2021-047A,2026-07-16T02:13:38.789184,1.00278801,.0006899,0.2227,79.9064,272.4027,79.5375,0,U,48808,999,1885,0,-.341E-5,0
SXM-8,2021-049A,2026-07-16T02:39:05.326848,1.00270240,.0005541,0.0175,47.1499,344.6881,216.7282,0,U,48838,999,1887,0,-.216E-5,0
TIANLIAN 1-05,2021-063A,2026-07-16T04:50:48.232032,1.00272534,.0001021,1.6668,80.4528,89.5691,213.5633,0,U,49011,999,1836,0,.97E-6,0
STAR ONE D2,2021-069A,2026-07-15T13:01:56.173728,1.00267571,.00025829,0.0117,29.9249,103.5107,285.3561,0,U,49055,999,1822,0,0,0
EUTELSAT QUANTUM,2021-069B,2026-07-16T03:16:56.445024,1.00271733,.0002045,0.0092,6.4781,102.6933,281.7132,0,U,49056,999,1821,0,.115E-5,0
ZHONGXING-2E,2021-071A,2026-07-16T02:32:21.831072,1.00267709,.0001282,0.0190,244.5888,259.8457,285.6781,0,U,49062,999,1832,0,0,0
TJS-7,2021-077A,2026-07-16T04:17:37.774752,1.00269173,.0002962,0.2827,263.9257,107.7109,247.2524,0,U,49115,999,983,0,-.134E-5,0
CHINASAT 9B,2021-080A,2026-07-16T02:13:38.789184,1.00268265,.0002157,0.0567,248.1660,257.1220,283.4361,0,U,49125,999,1793,0,-.322E-5,0
SHIJIAN-21 (SJ-21),2021-094A,2026-07-15T22:31:54.147360,1.00277587,.00516298,5.1792,61.0042,168.9694,169.6921,0,U,49330,999,564,0,-.36E-5,0
SES-17,2021-095A,2026-07-16T02:49:21.292320,1.00269563,.0000808,0.0231,48.3124,67.9958,152.8788,0,U,49332,999,1814,0,-.283E-5,0
SYRACUSE 4A,2021-095B,2026-07-15T11:52:30.592992,1.00269336,.000157,0.0256,65.0342,39.4977,52.4480,0,U,49333,999,1823,0,0,0
QZS-1R (MICHIBIKI-1R),2021-096A,2026-07-14T13:49:51.633120,1.00245239,.0754906,37.5157,79.1769,272.2285,280.2291,0,U,49336,999,1728,0,-.304E-5,0
ZHONGXING-1D,2021-114A,2026-07-16T05:36:38.959200,1.00267894,.0000674,0.0485,237.0045,16.5801,254.8008,0,U,49505,999,1711,0,-.347E-5,0
STPSAT-6,2021-118A,2026-07-16T02:31:28.556832,1.00270233,.000096,0.3935,85.0870,242.6649,252.2667,0,U,49817,999,1686,0,-.56E-6,0
EXPRESS AMU-7,2021-123A,2026-07-16T05:28:38.505216,1.00272412,.0000436,0.0359,265.3420,37.8714,218.0020,0,U,50001,999,1683,0,-.253E-5,0
EXPRESS AMU-3,2021-123B,2026-07-15T21:33:00.160992,1.00272959,.0000376,0.0080,315.1377,29.7170,15.1238,0,U,50002,999,731,0,-.332E-5,0
TIANLIAN 2-02,2021-124A,2026-07-16T04:04:38.688672,1.00270799,.0001666,0.8742,85.6355,161.8175,278.6682,0,U,50005,999,1691,0,-.26E-6,0
TURKSAT 5B,2021-126A,2026-07-16T03:15:19.099008,1.00270326,.0002331,0.0704,339.6733,13.8468,31.2710,0,U,50212,999,1658,0,.136E-5,0
INMARSAT 6-F1,2021-128A,2026-07-16T03:27:17.952192,1.00268381,.0000078,0.0168,47.4984,331.3553,50.7137,0,U,50319,999,1654,0,0,0
SHIYAN-12 01 (SY-12 01),2021-129A,2026-07-15T16:58:01.051104,1.00051422,.0002608,3.7461,79.5252,286.1640,219.2302,0,U,50321,999,1678,0,.137E-5,0
SHIYAN-12 02 (SY-12 02),2021-129B,2026-07-15T19:00:48.797280,1.00476956,.0003081,3.7454,79.5238,69.6589,180.4598,0,U,50322,999,1678,0,-.373E-5,0
TJS-9,2021-135A,2026-07-16T04:36:38.708352,1.00271969,.0002135,0.0490,100.8153,329.5116,70.1076,0,U,50574,999,1672,0,-.309E-5,0
GOES 18,2022-021A,2026-07-16T02:24:16.370208,1.00271202,.0000421,0.0174,122.2673,55.0677,15.6609,0,U,51850,999,688,0,.86E-6,0
ZHONGXING-6D,2022-038A,2026-07-13T20:12:48.756672,1.00272740,.00006039,0.0271,235.5038,296.7652,187.7170,0,U,52255,999,1569,0,-.359E-5,0
NILESAT 301,2022-061A,2026-07-16T02:01:38.622720,1.00269620,.0003527,0.0457,0.9602,79.7373,236.6457,0,U,52817,999,1502,0,-.69E-6,0
CMS-02 (GSAT-24),2022-067A,2026-07-16T03:46:38.667936,1.00269947,.0001084,0.0644,253.1056,106.4782,74.0476,0,U,52903,999,1489,0,-.175E-5,0
MEASAT 3D,2022-067B,2026-07-16T02:32:21.831072,1.00271087,.0000565,0.0425,314.6658,64.3578,44.5152,0,U,52904,999,1493,0,-.252E-5,0
SES-22,2022-071A,2026-07-16T02:23:46.417056,1.00271944,.0000834,0.0163,40.3377,67.1203,83.3960,0,U,52933,999,781,0,.94E-6,0
WFOV (USA 332),2022-073A,2026-07-16T01:41:38.709024,1.00266774,.0001467,3.7830,78.1616,215.7417,144.6647,0,U,52940,999,1466,0,-.375E-5,0
TIANLIAN 2-03,2022-078A,2026-07-16T03:06:27.447840,1.00272005,.0000851,0.7423,77.4900,10.7409,262.9889,0,U,53100,999,1483,0,.61E-6,0
SBIRS GEO-6 (USA 336),2022-092A,2026-07-15T22:35:01.345920,1.00271164,.0001679,3.2100,317.9670,153.2868,300.2808,0,U,53355,999,1452,0,-.299E-5,0
EUTELSAT KONNECT VHTS,2022-110A,2026-07-15T21:16:38.625024,1.00269204,.0002837,0.0578,98.9002,1.1959,155.4770,0,U,53765,999,712,0,.6E-7,0
ZHONGXING-1E,2022-112A,2026-07-16T03:46:38.668800,1.00270572,.0000819,0.0193,238.0961,37.0208,156.9552,0,U,53813,999,1413,0,0,0
SES-20,2022-123A,2026-07-16T03:23:42.404928,1.00269654,.0001768,0.0157,66.2783,26.8194,148.7026,0,U,53960,999,1382,0,-.111E-5,0
SES-21,2022-123B,2026-07-15T23:00:43.883136,1.00268712,.0001009,0.0396,39.4342,72.1203,36.5029,0,U,53961,999,750,0,0,0
GALAXY 33 (G-33),2022-128A,2026-07-15T22:59:58.954272,1.00272587,.0001814,0.0111,52.8487,67.7217,25.2247,0,U,54026,999,1403,0,.68E-6,0
GALAXY 34 (G-34),2022-128B,2026-07-16T03:40:33.200256,1.00273219,.0001518,0.0115,44.1059,105.6630,70.3609,0,U,54027,999,1420,0,.48E-6,0
ANGOSAT 2,2022-131A,2026-07-15T18:36:37.686816,1.00272241,.00002062,0.0222,113.2990,116.3358,6.1342,0,U,54033,999,1376,0,.125E-5,0
EUTELSAT HOTBIRD 13F,2022-134A,2026-07-16T03:07:04.890144,1.00270268,.000202,0.0590,284.3110,72.6744,356.7627,0,U,54048,999,1366,0,.76E-6,0
LDPE-2,2022-144A,2026-07-15T11:20:38.612832,1.00543934,.00023594,5.6794,63.4142,109.0609,160.7234,0,U,54219,999,1212,0,.14E-6,0
EUTELSAT HOTBIRD 13G,2022-146A,2026-07-16T01:24:22.112064,1.00269735,.0001962,0.0180,232.8326,307.4926,147.6868,0,U,54225,999,775,0,0,0
ZHONGXING-19,2022-148A,2026-07-16T05:12:38.550240,1.00269773,.0003086,0.0208,61.8845,74.2624,39.2612,0,U,54230,999,1367,0,0,0
GALAXY 31 (G-31),2022-153A,2026-07-16T03:23:02.063040,1.00271461,.000102,0.0139,88.7797,31.0845,103.8504,0,U,54243,999,742,0,.3E-7,0
GALAXY 32 (G-32),2022-153B,2026-07-16T02:37:27.983424,1.00272484,.0001335,0.0093,52.6326,351.4801,198.1918,0,U,54244,999,1343,0,-.185E-5,0
EUTELSAT 10B,2022-157A,2026-07-15T20:15:38.358144,1.00272855,.0001739,0.0585,93.6406,33.4745,120.4605,0,U,54259,999,1331,0,.58E-6,0
GALAXY 35 (G-35),2022-170A,2026-07-16T02:36:50.541984,1.00272286,.0001798,0.0158,70.4057,45.9484,123.6831,0,U,54741,999,1318,0,-.173E-5,0
GALAXY 36 (G-36),2022-170B,2026-07-15T14:39:27.997344,1.00270281,.00023966,0.0054,142.8857,316.1422,325.2844,0,U,54742,999,1305,0,-.195E-5,0
METEOSAT-12 (MTG-I1),2022-170C,2026-07-16T03:03:20.248416,1.00267951,.0003845,0.7261,19.8731,81.8135,237.7772,0,U,54743,999,1326,0,-.19E-6,0
SHIJIAN-23 (SJ-23),2023-002A,2026-07-15T18:59:00.412800,1.00076519,.0003428,3.7889,77.9512,271.6051,357.5202,0,U,55131,999,1279,0,-.365E-5,0
APSTAR-6E,2023-005A,2026-07-14T19:34:42.235968,1.00265114,.00021361,0.0207,271.3385,293.8948,155.1380,0,U,55239,999,1896,0,0,0
USA 342,2023-008A,2026-07-09T06:55:38.597952,1.00269378,.0000262,0.0052,352.2306,7.3445,55.4773,0,U,55263,999,1273,0,0,0
LDPE-3A,2023-008B,2026-07-15T22:33:53.953920,0.99149853,.0001529,2.4209,81.3073,76.8488,248.8767,0,U,55264,999,1209,0,-.298E-5,0
ELEKTRO-L 4,2023-016A,2026-07-15T17:22:30.332352,1.00270581,.0001506,0.1191,278.1881,255.5578,186.2359,0,U,55506,999,1262,0,-.69E-6,0
AMAZONAS NEXUS,2023-017A,2026-07-13T18:18:24.198912,1.00268939,.00043642,0.0356,42.7695,42.6416,59.8176,0,U,55508,999,731,0,-.287E-5,0
ZHONGXING-26,2023-023A,2026-07-15T20:48:27.192096,1.00254114,.0002963,0.0611,70.5099,15.8710,284.5491,0,U,55686,999,1251,0,-.365E-5,0
LUCH-5X (OLYMP-K 2),2023-031A,2026-07-15T11:57:15.138432,1.00271236,.0000977,0.0319,96.7468,175.3046,262.5805,0,U,55841,999,1222,0,.23E-6,0
GAOFEN-13 02,2023-036A,2026-07-16T05:28:38.505216,1.00274133,.0003696,1.0282,4.7247,336.7665,182.9740,0,U,55912,999,1238,0,-.229E-5,0
SES-18,2023-038A,2026-07-16T03:23:42.436032,1.00270387,.0000761,0.0504,252.3019,313.8811,35.6246,0,U,55970,999,1239,0,-.111E-5,0
SES-19,2023-038B,2026-07-15T12:43:42.919104,1.00269536,.0001517,0.0103,1.5399,111.9485,235.9011,0,U,55971,999,1237,0,.78E-6,0
INTELSAT 40E (IS-40E),2023-052A,2026-07-16T02:37:27.983424,1.00271802,.0002232,0.0156,73.1752,71.1986,97.9371,0,U,56174,999,1211,0,-.185E-5,0
VIASAT-3 F1,2023-060A,2026-07-14T19:50:08.246112,1.00270317,.00007716,0.0149,26.8771,79.6667,34.7004,0,U,56370,999,1171,0,0,0
ARCTURUS,2023-060B,2026-07-16T00:06:34.149024,1.00594342,.0001039,2.8460,79.5828,131.8963,183.9690,0,U,56371,999,1174,0,-.351E-5,0
GS-1,2023-060C,2026-07-15T18:55:36.403392,1.00266601,.00033739,2.7966,79.4935,280.7224,306.6091,0,U,56372,999,782,0,-.234E-5,0
BEIDOU-3 G4,2023-066A,2026-07-16T05:28:38.505216,1.00272177,.0004913,0.4598,339.2455,186.5525,350.4912,0,U,56564,999,1168,0,-.291E-5,0
ARABSAT-7B (BADR-8),2023-075A,2026-07-14T11:49:49.380096,1.00271079,.0003416,0.0743,30.7036,358.3138,106.7877,0,U,56757,999,1139,0,.137E-5,0
NVS-01 (IRNSS-1J),2023-076A,2026-07-16T00:14:55.847040,1.00264374,.0003531,2.0994,243.0392,6.7404,177.2011,0,U,56759,999,1140,0,-.347E-5,0
